[{"OBJECT_NAME":"ONEWEB-0180","OBJECT_ID":"2021-031D","EPOCH":"2026-01-17T06:57:15.378912","MEAN_MOTION":13.14503079,"ECCENTRICITY":0.00014778,"INCLINATION":87.9038,"RA_OF_ASC_NODE":319.7625,"ARG_OF_PERICENTER":84.9866,"MEAN_ANOMALY":275.1432,"EPHEMERIS_TYPE":0,"CLASSIFICATION_TYPE":"U","NORAD_CAT_ID":48213,"ELEMENT_SET_NO":999,"REV_AT_EPOCH":22839,"BSTAR":0.00058704715,"MEAN_MOTION_DOT":2.3e-6,"MEAN_MOTION_DDOT":0},{"OBJECT_NAME":"ONEWEB-0218","OBJECT_ID":"2021-031E","EPOCH":"2026-01-17T12:58:01.347168","MEAN_MOTION":13.14501041,"ECCENTRICITY":8.013e-5,"INCLINATION":87.9037,"RA_OF_ASC_NODE":319.7132,"ARG_OF_PERICENTER":78.1666,"MEAN_ANOMALY":281.9553,"EPHEMERIS_TYPE":0,"CLASSIFICATION_TYPE":"U","NORAD_CAT_ID":48214,"ELEMENT_SET_NO":999,"REV_AT_EPOCH":22858,"BSTAR":-0.0001415916,"MEAN_MOTION_DOT":-4.0e-7,"MEAN_MOTION_DDOT":0},{"OBJECT_NAME":"ONEWEB-0209","OBJECT_ID":"2021-031F","EPOCH":"2026-01-17T12:42:04.109472","MEAN_MOTION":13.1450361,"ECCENTRICITY":0.00016944,"INCLINATION":87.9022,"RA_OF_ASC_NODE":319.7478,"ARG_OF_PERICENTER":84.7116,"MEAN_ANOMALY":275.4207,"EPHEMERIS_TYPE":0,"CLASSIFICATION_TYPE":"U","NORAD_CAT_ID":48215,"ELEMENT_SET_NO":999,"REV_AT_EPOCH":22858,"BSTAR":0.00036950534,"MEAN_MOTION_DOT":1.5e-6,"MEAN_MOTION_DDOT":0},{"OBJECT_NAME":"ONEWEB-0198","OBJECT_ID":"2021-031G","EPOCH":"2026-01-17T06:50:36.366432","MEAN_MOTION":13.14502746,"ECCENTRICITY":0.00013709,"INCLINATION":87.9024,"RA_OF_ASC_NODE":319.7935,"ARG_OF_PERICENTER":88.1813,"MEAN_ANOMALY":271.9474,"EPHEMERIS_TYPE":0,"CLASSIFICATION_TYPE":"U","NORAD_CAT_ID":48216,"ELEMENT_SET_NO":999,"REV_AT_EPOCH":22866,"BSTAR":0.00068281577,"MEAN_MOTION_DOT":2.66e-6,"MEAN_MOTION_DDOT":0},{"OBJECT_NAME":"ONEWEB-0189","OBJECT_ID":"2021-031H","EPOCH":"2026-01-17T12:37:30.032256","MEAN_MOTION":13.14502883,"ECCENTRICITY":0.00013876,"INCLINATION":87.9027,"RA_OF_ASC_NODE":319.7209,"ARG_OF_PERICENTER":84.2002,"MEAN_ANOMALY":275.9286,"EPHEMERIS_TYPE":0,"CLASSIFICATION_TYPE":"U","NORAD_CAT_ID":48217,"ELEMENT_SET_NO":999,"REV_AT_EPOCH":22843,"BSTAR":0.00046026912,"MEAN_MOTION_DOT":1.83e-6,"MEAN_MOTION_DDOT":0},{"OBJECT_NAME":"ONEWEB-0196","OBJECT_ID":"2021-031J","EPOCH":"2026-01-17T13:55:07.267008","MEAN_MOTION":13.14502236,"ECCENTRICITY":0.0001614,"INCLINATION":87.9023,"RA_OF_ASC_NODE":319.7227,"ARG_OF_PERICENTER":82.7857,"MEAN_ANOMALY":277.3456,"EPHEMERIS_TYPE":0,"CLASSIFICATION_TYPE":"U","NORAD_CAT_ID":48218,"ELEMENT_SET_NO":999,"REV_AT_EPOCH":22844,"BSTAR":0.00059777443,"MEAN_MOTION_DOT":2.34e-6,"MEAN_MOTION_DDOT":0},{"OBJECT_NAME":"ONEWEB-0183","OBJECT_ID":"2021-031K","EPOCH":"2026-01-17T13:18:35.664480","MEAN_MOTION":13.14504005,"ECCENTRICITY":0.00019324,"INCLINATION":87.9017,"RA_OF_ASC_NODE":319.7296,"ARG_OF_PERICENTER":81.08,"MEAN_ANOMALY":279.0548,"EPHEMERIS_TYPE":0,"CLASSIFICATION_TYPE":"U","NORAD_CAT_ID":48219,"ELEMENT_SET_NO":999,"REV_AT_EPOCH":22853,"BSTAR":-0.00046829934,"MEAN_MOTION_DOT":-1.61e-6,"MEAN_MOTION_DDOT":0},{"OBJECT_NAME":"ONEWEB-0185","OBJECT_ID":"2021-031L","EPOCH":"2026-01-17T13:56:16.113120","MEAN_MOTION":13.14501311,"ECCENTRICITY":0.00019348,"INCLINATION":87.9028,"RA_OF_ASC_NODE":319.7062,"ARG_OF_PERICENTER":89.8754,"MEAN_ANOMALY":270.2597,"EPHEMERIS_TYPE":0,"CLASSIFICATION_TYPE":"U","NORAD_CAT_ID":48220,"ELEMENT_SET_NO":999,"REV_AT_EPOCH":22846,"BSTAR":0.00032484526,"MEAN_MOTION_DOT":1.33e-6,"MEAN_MOTION_DDOT":0},{"OBJECT_NAME":"ONEWEB-0187","OBJECT_ID":"2021-031M","EPOCH":"2026-01-17T15:17:08.983392","MEAN_MOTION":13.14503199,"ECCENTRICITY":0.0001694,"INCLINATION":87.9018,"RA_OF_ASC_NODE":319.7321,"ARG_OF_PERICENTER":87.7866,"MEAN_ANOMALY":272.3457,"EPHEMERIS_TYPE":0,"CLASSIFICATION_TYPE":"U","NORAD_CAT_ID":48221,"ELEMENT_SET_NO":999,"REV_AT_EPOCH":22848,"BSTAR":-0.00033287749,"MEAN_MOTION_DOT":-1.11e-6,"MEAN_MOTION_DDOT":0},{"OBJECT_NAME":"ONEWEB-0192","OBJECT_ID":"2021-031N","EPOCH":"2026-01-17T12:44:20.702688","MEAN_MOTION":13.1450383,"ECCENTRICITY":0.00016036,"INCLINATION":87.9019,"RA_OF_ASC_NODE":319.7425,"ARG_OF_PERICENTER":77.6009,"MEAN_ANOMALY":282.5301,"EPHEMERIS_TYPE":0,"CLASSIFICATION_TYPE":"U","NORAD_CAT_ID":48222,"ELEMENT_SET_NO":999,"REV_AT_EPOCH":22838,"BSTAR":0.00029087282,"MEAN_MOTION_DOT":1.21e-6,"MEAN_MOTION_DDOT":0},{"OBJECT_NAME":"ONEWEB-0219","OBJECT_ID":"2021-031P","EPOCH":"2026-01-17T14:04:16.390848","MEAN_MOTION":13.14503218,"ECCENTRICITY":0.00017683,"INCLINATION":87.9027,"RA_OF_ASC_NODE":319.7123,"ARG_OF_PERICENTER":86.3116,"MEAN_ANOMALY":273.8216,"EPHEMERIS_TYPE":0,"CLASSIFICATION_TYPE":"U","NORAD_CAT_ID":48223,"ELEMENT_SET_NO":999,"REV_AT_EPOCH":22859,"BSTAR":0.00036263265,"MEAN_MOTION_DOT":1.47e-6,"MEAN_MOTION_DDOT":0},{"OBJECT_NAME":"ONEWEB-0202","OBJECT_ID":"2021-031Q","EPOCH":"2026-01-17T13:36:51.363360","MEAN_MOTION":13.14503749,"ECCENTRICITY":0.00010321,"INCLINATION":87.9022,"RA_OF_ASC_NODE":319.7263,"ARG_OF_PERICENTER":88.9745,"MEAN_ANOMALY":271.1503,"EPHEMERIS_TYPE":0,"CLASSIFICATION_TYPE":"U","NORAD_CAT_ID":48224,"ELEMENT_SET_NO":999,"REV_AT_EPOCH":22857,"BSTAR":-0.00024918583,"MEAN_MOTION_DOT":-8.0e-7,"MEAN_MOTION_DDOT":0},{"OBJECT_NAME":"ONEWEB-0204","OBJECT_ID":"2021-031R","EPOCH":"2026-01-17T12:36:20.346336","MEAN_MOTION":13.14501483,"ECCENTRICITY":0.00020426,"INCLINATION":87.9026,"RA_OF_ASC_NODE":319.7268,"ARG_OF_PERICENTER":81.3076,"MEAN_ANOMALY":278.8285,"EPHEMERIS_TYPE":0,"CLASSIFICATION_TYPE":"U","NORAD_CAT_ID":48225,"ELEMENT_SET_NO":999,"REV_AT_EPOCH":22846,"BSTAR":0.00045324347,"MEAN_MOTION_DOT":1.81e-6,"MEAN_MOTION_DDOT":0},{"OBJECT_NAME":"ONEWEB-0205","OBJECT_ID":"2021-031S","EPOCH":"2026-01-17T13:50:34.512576","MEAN_MOTION":13.14503341,"ECCENTRICITY":0.00017611,"INCLINATION":87.9026,"RA_OF_ASC_NODE":319.7091,"ARG_OF_PERICENTER":84.8846,"MEAN_ANOMALY":275.2484,"EPHEMERIS_TYPE":0,"CLASSIFICATION_TYPE":"U","NORAD_CAT_ID":48226,"ELEMENT_SET_NO":999,"REV_AT_EPOCH":22848,"BSTAR":0.00015989575,"MEAN_MOTION_DOT":7.2e-7,"MEAN_MOTION_DDOT":0},{"OBJECT_NAME":"ONEWEB-0206","OBJECT_ID":"2021-031T","EPOCH":"2026-01-17T13:11:44.516256","MEAN_MOTION":13.14502374,"ECCENTRICITY":0.0001747,"INCLINATION":87.9039,"RA_OF_ASC_NODE":319.709,"ARG_OF_PERICENTER":70.1994,"MEAN_ANOMALY":289.9324,"EPHEMERIS_TYPE":0,"CLASSIFICATION_TYPE":"U","NORAD_CAT_ID":48227,"ELEMENT_SET_NO":999,"REV_AT_EPOCH":22843,"BSTAR":-0.00049243302,"MEAN_MOTION_DOT":-1.7e-6,"MEAN_MOTION_DDOT":0},{"OBJECT_NAME":"ONEWEB-0182","OBJECT_ID":"2021-031U","EPOCH":"2026-01-17T13:04:53.706720","MEAN_MOTION":13.14503757,"ECCENTRICITY":0.00019541,"INCLINATION":87.9017,"RA_OF_ASC_NODE":319.731,"ARG_OF_PERICENTER":79.4734,"MEAN_ANOMALY":280.6616,"EPHEMERIS_TYPE":0,"CLASSIFICATION_TYPE":"U","NORAD_CAT_ID":48228,"ELEMENT_SET_NO":999,"REV_AT_EPOCH":22864,"BSTAR":-0.00037814587,"MEAN_MOTION_DOT":-1.27e-6,"MEAN_MOTION_DDOT":0}]
