ONEWEB-0180             
1 48213U 21031D   26017.28976133  .00000230  00000+0  58705-3 0  9992
2 48213  87.9038 319.7625 0001477  84.9866 275.1432 13.14503079228399
ONEWEB-0218             
1 48214U 21031E   26017.54029337 -.00000040  00000+0 -14159-3 0  9993
2 48214  87.9037 319.7132 0000801  78.1666 281.9553 13.14501041228582
ONEWEB-0209             
1 48215U 21031F   26017.52921423  .00000150  00000+0  36951-3 0  9993
2 48215  87.9022 319.7478 0001694  84.7116 275.4207 13.14503610228582
ONEWEB-0198             
1 48216U 21031G   26017.28514313  .00000266  00000+0  68282-3 0  9993
2 48216  87.9024 319.7935 0001370  88.1813 271.9474 13.14502746228661
ONEWEB-0189             
1 48217U 21031H   26017.52604204  .00000183  00000+0  46027-3 0  9991
2 48217  87.9027 319.7209 0001387  84.2002 275.9286 13.14502883228436
ONEWEB-0196             
1 48218U 21031J   26017.57994522  .00000234  00000+0  59777-3 0  9995
2 48218  87.9023 319.7227 0001614  82.7857 277.3456 13.14502236228445
ONEWEB-0183             
1 48219U 21031K   26017.55457945 -.00000161  00000+0 -46830-3 0  9994
2 48219  87.9017 319.7296 0001932  81.0800 279.0548 13.14504005228535
ONEWEB-0185             
1 48220U 21031L   26017.58074205  .00000133  00000+0  32485-3 0  9991
2 48220  87.9028 319.7062 0001934  89.8754 270.2597 13.14501311228462
ONEWEB-0187             
1 48221U 21031M   26017.63690953 -.00000111  00000+0 -33288-3 0  9992
2 48221  87.9018 319.7321 0001694  87.7866 272.3457 13.14503199228480
ONEWEB-0192             
1 48222U 21031N   26017.53079517  .00000121  00000+0  29087-3 0  9990
2 48222  87.9019 319.7425 0001603  77.6009 282.5301 13.14503830228386
ONEWEB-0219             
1 48223U 21031P   26017.58630082  .00000147  00000+0  36263-3 0  9998
2 48223  87.9027 319.7123 0001768  86.3116 273.8216 13.14503218228590
ONEWEB-0202             
1 48224U 21031Q   26017.56726115 -.00000080  00000+0 -24919-3 0  9993
2 48224  87.9022 319.7263 0001032  88.9745 271.1503 13.14503749228578
ONEWEB-0204             
1 48225U 21031R   26017.52523549  .00000181  00000+0  45324-3 0  9999
2 48225  87.9026 319.7268 0002042  81.3076 278.8285 13.14501483228466
ONEWEB-0205             
1 48226U 21031S   26017.57678834  .00000072  00000+0  15990-3 0  9998
2 48226  87.9026 319.7091 0001761  84.8846 275.2484 13.14503341228480
ONEWEB-0206             
1 48227U 21031T   26017.54982079 -.00000170  00000+0 -49243-3 0  9994
2 48227  87.9039 319.7090 0001747  70.1994 289.9324 13.14502374228435
ONEWEB-0182             
1 48228U 21031U   26017.54506605 -.00000127  00000+0 -37815-3 0  9996
2 48228  87.9017 319.7310 0001954  79.4734 280.6616 13.14503757228642
